[Satellite]
VERSION=1.1
NAME=SKYNET 4C
NICKNAME=SKYNET 4C
TLE1=1 20776U 90079A   15055.16351584 -.00000054  00000-0  00000+0 0  9995
TLE2=2 20776  13.2363  24.9698 0005697  76.1715 110.1355  1.00270710 89522
